{
  "type": "FeatureCollection",
  "features": [
    {
      "type": "Feature",
      "properties": {
        "norad_id": 51444,
        "name": "CSG-2",
        "group": "resource",
        "lat": 9.636151832518507,
        "lon": -8.747176148664307,
        "alt_km": 624.202734960274,
        "timestamp": "2025-12-14T14:39:29.034242+00:00",
        "meta_object_name": "CSG-2",
        "meta_object_id": "2022-008A",
        "meta_epoch": "2025-12-13T23:18:38.856384",
        "meta_mean_motion": 14.82165733,
        "meta_eccentricity": 0.00015059,
        "meta_inclination": 97.8809,
        "meta_ra_of_asc_node": 169.2756,
        "meta_arg_of_pericenter": 80.9136,
        "meta_mean_anomaly": 279.2247,
        "meta_ephemeris_type": 0,
        "meta_classification_type": "U",
        "meta_norad_cat_id": 51444,
        "meta_element_set_no": 999,
        "meta_rev_at_epoch": 20915,
        "meta_bstar": 7.5723594e-05,
        "meta_mean_motion_dot": 5.51e-06,
        "meta_mean_motion_ddot": 0,
        "tle_line1": "1 51444U 22008A   25347.97128306  .00000551  00000+0  75724-4 0  9996",
        "tle_line2": "2 51444  97.8809 169.2756 0001505  80.9136 279.2247 14.82165733209155"
      },
      "geometry": {
        "type": "Point",
        "coordinates": [
          -8.747176148664307,
          9.636151832518507
        ]
      }
    },
    {
      "type": "Feature",
      "properties": {
        "norad_id": 52912,
        "name": "GAOFEN-12 03",
        "group": "resource",
        "lat": 68.08269446875202,
        "lon": -144.1317990092422,
        "alt_km": 622.4112715914098,
        "timestamp": "2025-12-14T14:39:29.034252+00:00",
        "meta_object_name": "GAOFEN-12 03",
        "meta_object_id": "2022-069A",
        "meta_epoch": "2025-12-13T23:44:17.065824",
        "meta_mean_motion": 14.79616014,
        "meta_eccentricity": 0.00021805,
        "meta_inclination": 97.848,
        "meta_ra_of_asc_node": 235.3093,
        "meta_arg_of_pericenter": 60.0134,
        "meta_mean_anomaly": 300.1294,
        "meta_ephemeris_type": 0,
        "meta_classification_type": "U",
        "meta_norad_cat_id": 52912,
        "meta_element_set_no": 999,
        "meta_rev_at_epoch": 18722,
        "meta_bstar": 0.00032121285,
        "meta_mean_motion_dot": 2.357e-05,
        "meta_mean_motion_ddot": 0,
        "tle_line1": "1 52912U 22069A   25347.98908641  .00002357  00000+0  32121-3 0  9992",
        "tle_line2": "2 52912  97.8480 235.3093 0002180  60.0134 300.1294 14.79616014187225"
      },
      "geometry": {
        "type": "Point",
        "coordinates": [
          -144.1317990092422,
          68.08269446875202
        ]
      }
    },
    {
      "type": "Feature",
      "properties": {
        "norad_id": 54754,
        "name": "SWOT",
        "group": "resource",
        "lat": -49.938852207350955,
        "lon": 119.61664933212059,
        "alt_km": 900.0606222539618,
        "timestamp": "2025-12-14T14:39:29.034263+00:00",
        "meta_object_name": "SWOT",
        "meta_object_id": "2022-173A",
        "meta_epoch": "2025-12-13T23:50:11.537376",
        "meta_mean_motion": 14.00167191,
        "meta_eccentricity": 3.338e-05,
        "meta_inclination": 77.6107,
        "meta_ra_of_asc_node": 285.2976,
        "meta_arg_of_pericenter": 107.3923,
        "meta_mean_anomaly": 252.7265,
        "meta_ephemeris_type": 0,
        "meta_classification_type": "U",
        "meta_norad_cat_id": 54754,
        "meta_element_set_no": 999,
        "meta_rev_at_epoch": 15323,
        "meta_bstar": 6.6077411e-05,
        "meta_mean_motion_dot": 9.5e-07,
        "meta_mean_motion_ddot": 0,
        "tle_line1": "1 54754U 22173A   25347.99318909  .00000095  00000+0  66077-4 0  9992",
        "tle_line2": "2 54754  77.6107 285.2976 0000333 107.3923 252.7265 14.00167191153231"
      },
      "geometry": {
        "type": "Point",
        "coordinates": [
          119.61664933212059,
          -49.938852207350955
        ]
      }
    },
    {
      "type": "Feature",
      "properties": {
        "norad_id": 57654,
        "name": "GAOFEN-12 04",
        "group": "resource",
        "lat": -58.86783282209659,
        "lon": 71.02836905407602,
        "alt_km": 638.2908923223486,
        "timestamp": "2025-12-14T14:39:29.034272+00:00",
        "meta_object_name": "GAOFEN-12 04",
        "meta_object_id": "2023-123A",
        "meta_epoch": "2025-12-14T00:35:40.313760",
        "meta_mean_motion": 14.79706033,
        "meta_eccentricity": 0.00013457,
        "meta_inclination": 97.9118,
        "meta_ra_of_asc_node": 263.7625,
        "meta_arg_of_pericenter": 75.0998,
        "meta_mean_anomaly": 285.0363,
        "meta_ephemeris_type": 0,
        "meta_classification_type": "U",
        "meta_norad_cat_id": 57654,
        "meta_element_set_no": 999,
        "meta_rev_at_epoch": 12524,
        "meta_bstar": 0.00025915998,
        "meta_mean_motion_dot": 1.895e-05,
        "meta_mean_motion_ddot": 0,
        "tle_line1": "1 57654U 23123A   25348.02477215  .00001895  00000+0  25916-3 0  9996",
        "tle_line2": "2 57654  97.9118 263.7625 0001345  75.0998 285.0363 14.79706033125247"
      },
      "geometry": {
        "type": "Point",
        "coordinates": [
          71.02836905407602,
          -58.86783282209659
        ]
      }
    },
    {
      "type": "Feature",
      "properties": {
        "norad_id": 59065,
        "name": "PARS 1",
        "group": "resource",
        "lat": -31.4152145269694,
        "lon": -35.82384284715897,
        "alt_km": 450.38590268174903,
        "timestamp": "2025-12-14T14:39:29.034282+00:00",
        "meta_object_name": "PARS 1",
        "meta_object_id": "2024-039Q",
        "meta_epoch": "2025-12-13T23:12:40.080384",
        "meta_mean_motion": 15.41010217,
        "meta_eccentricity": 0.00125086,
        "meta_inclination": 97.4632,
        "meta_ra_of_asc_node": 318.9264,
        "meta_arg_of_pericenter": 68.6451,
        "meta_mean_anomaly": 291.6129,
        "meta_ephemeris_type": 0,
        "meta_classification_type": "U",
        "meta_norad_cat_id": 59065,
        "meta_element_set_no": 999,
        "meta_rev_at_epoch": 10007,
        "meta_bstar": 0.00031092936,
        "meta_mean_motion_dot": 0.00012778,
        "meta_mean_motion_ddot": 0,
        "tle_line1": "1 59065U 24039Q   25347.96713056  .00012778  00000+0  31093-3 0  9994",
        "tle_line2": "2 59065  97.4632 318.9264 0012508  68.6451 291.6129 15.41010217100077"
      },
      "geometry": {
        "type": "Point",
        "coordinates": [
          -35.82384284715897,
          -31.4152145269694
        ]
      }
    },
    {
      "type": "Feature",
      "properties": {
        "norad_id": 59371,
        "name": "RESURS-P 4",
        "group": "resource",
        "lat": 50.05433647725503,
        "lon": -73.84597152978569,
        "alt_km": 464.0325150069775,
        "timestamp": "2025-12-14T14:39:29.034292+00:00",
        "meta_object_name": "RESURS-P 4",
        "meta_object_id": "2024-061A",
        "meta_epoch": "2025-12-14T00:19:50.022624",
        "meta_mean_motion": 15.32098912,
        "meta_eccentricity": 0.00014448,
        "meta_inclination": 97.254,
        "meta_ra_of_asc_node": 294.3176,
        "meta_arg_of_pericenter": 54.0259,
        "meta_mean_anomaly": 306.1117,
        "meta_ephemeris_type": 0,
        "meta_classification_type": "U",
        "meta_norad_cat_id": 59371,
        "meta_element_set_no": 999,
        "meta_rev_at_epoch": 9540,
        "meta_bstar": 0.00016029498,
        "meta_mean_motion_dot": 4.891e-05,
        "meta_mean_motion_ddot": 0,
        "tle_line1": "1 59371U 24061A   25348.01377341  .00004891  00000+0  16029-3 0  9998",
        "tle_line2": "2 59371  97.2540 294.3176 0001444  54.0259 306.1117 15.32098912 95401"
      },
      "geometry": {
        "type": "Point",
        "coordinates": [
          -73.84597152978569,
          50.05433647725503
        ]
      }
    },
    {
      "type": "Feature",
      "properties": {
        "norad_id": 59625,
        "name": "LEGION 1",
        "group": "resource",
        "lat": 9.00720680320429,
        "lon": -115.56682897069832,
        "alt_km": 520.2889803341195,
        "timestamp": "2025-12-14T14:39:29.034302+00:00",
        "meta_object_name": "LEGION 1",
        "meta_object_id": "2024-081A",
        "meta_epoch": "2025-12-13T22:04:15.824640",
        "meta_mean_motion": 15.16496264,
        "meta_eccentricity": 0.00038809,
        "meta_inclination": 97.5213,
        "meta_ra_of_asc_node": 62.5479,
        "meta_arg_of_pericenter": 312.8685,
        "meta_mean_anomaly": 47.2222,
        "meta_ephemeris_type": 0,
        "meta_classification_type": "U",
        "meta_norad_cat_id": 59625,
        "meta_element_set_no": 999,
        "meta_rev_at_epoch": 8945,
        "meta_bstar": 0.00028826494,
        "meta_mean_motion_dot": 5.549e-05,
        "meta_mean_motion_ddot": 0,
        "tle_line1": "1 59625U 24081A   25347.91962760  .00005549  00000+0  28826-3 0  9994",
        "tle_line2": "2 59625  97.5213  62.5479 0003880 312.8685  47.2222 15.16496264 89450"
      },
      "geometry": {
        "type": "Point",
        "coordinates": [
          -115.56682897069832,
          9.00720680320429
        ]
      }
    }
  ]
}